{"type": "Feature", "properties": {"featurecla": "Admin-0 country", "scalerank": 1, "LABELRANK": 3, "SOVEREIGNT": "Sri Lanka", "SOV_A3": "LKA", "ADM0_DIF": 0, "LEVEL": 2, "TYPE": "Sovereign country", "TLC": "1", "ADMIN": "Sri Lanka", "ADM0_A3": "LKA", "GEOU_DIF": 0, "GEOUNIT": "Sri Lanka", "GU_A3": "LKA", "SU_DIF": 0, "SUBUNIT": "Sri Lanka", "SU_A3": "LKA", "BRK_DIFF": 0, "NAME": "Sri Lanka", "NAME_LONG": "Sri Lanka", "BRK_A3": "LKA", "BRK_NAME": "Sri Lanka", "BRK_GROUP": null, "ABBREV": "Sri L.", "POSTAL": "LK", "FORMAL_EN": "Democratic Socialist Republic of Sri Lanka", "FORMAL_FR": null, "NAME_CIAWF": "Sri Lanka", "NOTE_ADM0": null, "NOTE_BRK": null, "NAME_SORT": "Sri Lanka", "NAME_ALT": null, "MAPCOLOR7": 3, "MAPCOLOR8": 5, "MAPCOLOR9": 4, "MAPCOLOR13": 9, "POP_EST": 21803000, "POP_RANK": 15, "POP_YEAR": 2019, "GDP_MD": 84008, "GDP_YEAR": 2019, "ECONOMY": "6. Developing region", "INCOME_GRP": "4. Lower middle income", "FIPS_10": "CE", "ISO_A2": "LK", "ISO_A2_EH": "LK", "ISO_A3": "LKA", "ISO_A3_EH": "LKA", "ISO_N3": "144", "ISO_N3_EH": "144", "UN_A3": "144", "WB_A2": "LK", "WB_A3": "LKA", "WOE_ID": 23424778, "WOE_ID_EH": 23424778, "WOE_NOTE": "Exact WOE match as country", "ADM0_ISO": "LKA", "ADM0_DIFF": null, "ADM0_TLC": "LKA", "ADM0_A3_US": "LKA", "ADM0_A3_FR": "LKA", "ADM0_A3_RU": "LKA", "ADM0_A3_ES": "LKA", "ADM0_A3_CN": "LKA", "ADM0_A3_TW": "LKA", "ADM0_A3_IN": "LKA", "ADM0_A3_NP": "LKA", "ADM0_A3_PK": "LKA", "ADM0_A3_DE": "LKA", "ADM0_A3_GB": "LKA", "ADM0_A3_BR": "LKA", "ADM0_A3_IL": "LKA", "ADM0_A3_PS": "LKA", "ADM0_A3_SA": "LKA", "ADM0_A3_EG": "LKA", "ADM0_A3_MA": "LKA", "ADM0_A3_PT": "LKA", "ADM0_A3_AR": "LKA", "ADM0_A3_JP": "LKA", "ADM0_A3_KO": "LKA", "ADM0_A3_VN": "LKA", "ADM0_A3_TR": "LKA", "ADM0_A3_ID": "LKA", "ADM0_A3_PL": "LKA", "ADM0_A3_GR": "LKA", "ADM0_A3_IT": "LKA", "ADM0_A3_NL": "LKA", "ADM0_A3_SE": "LKA", "ADM0_A3_BD": "LKA", "ADM0_A3_UA": "LKA", "ADM0_A3_UN": -99, "ADM0_A3_WB": -99, "CONTINENT": "Asia", "REGION_UN": "Asia", "SUBREGION": "Southern Asia", "REGION_WB": "South Asia", "NAME_LEN": 9, "LONG_LEN": 9, "ABBREV_LEN": 6, "TINY": -99, "HOMEPART": 1, "MIN_ZOOM": 0, "MIN_LABEL": 3, "MAX_LABEL": 8, "LABEL_X": 80.704823, "LABEL_Y": 7.581097, "NE_ID": 1159321025, "WIKIDATAID": "Q854", "NAME_AR": "\u0633\u0631\u064a\u0644\u0627\u0646\u0643\u0627", "NAME_BN": "\u09b6\u09cd\u09b0\u09c0\u09b2\u0999\u09cd\u0995\u09be", "NAME_DE": "Sri Lanka", "NAME_EN": "Sri Lanka", "NAME_ES": "Sri Lanka", "NAME_FA": "\u0633\u0631\u06cc\u0644\u0627\u0646\u06a9\u0627", "NAME_FR": "Sri Lanka", "NAME_EL": "\u03a3\u03c1\u03b9 \u039b\u03ac\u03bd\u03ba\u03b1", "NAME_HE": "\u05e1\u05e8\u05d9 \u05dc\u05e0\u05e7\u05d4", "NAME_HI": "\u0936\u094d\u0930\u0940\u0932\u0902\u0915\u093e", "NAME_HU": "Sr\u00ed Lanka", "NAME_ID": "Sri Lanka", "NAME_IT": "Sri Lanka", "NAME_JA": "\u30b9\u30ea\u30e9\u30f3\u30ab", "NAME_KO": "\uc2a4\ub9ac\ub791\uce74", "NAME_NL": "Sri Lanka", "NAME_PL": "Sri Lanka", "NAME_PT": "Sri Lanka", "NAME_RU": "\u0428\u0440\u0438-\u041b\u0430\u043d\u043a\u0430", "NAME_SV": "Sri Lanka", "NAME_TR": "Sri Lanka", "NAME_UK": "\u0428\u0440\u0456-\u041b\u0430\u043d\u043a\u0430", "NAME_UR": "\u0633\u0631\u06cc \u0644\u0646\u06a9\u0627", "NAME_VI": "Sri Lanka", "NAME_ZH": "\u65af\u91cc\u5170\u5361", "NAME_ZHT": "\u65af\u91cc\u862d\u5361", "FCLASS_ISO": "Admin-0 country", "TLC_DIFF": null, "FCLASS_TLC": "Admin-0 country", "FCLASS_US": null, "FCLASS_FR": null, "FCLASS_RU": null, "FCLASS_ES": null, "FCLASS_CN": null, "FCLASS_TW": null, "FCLASS_IN": null, "FCLASS_NP": null, "FCLASS_PK": null, "FCLASS_DE": null, "FCLASS_GB": null, "FCLASS_BR": null, "FCLASS_IL": null, "FCLASS_PS": null, "FCLASS_SA": null, "FCLASS_EG": null, "FCLASS_MA": null, "FCLASS_PT": null, "FCLASS_AR": null, "FCLASS_JP": null, "FCLASS_KO": null, "FCLASS_VN": null, "FCLASS_TR": null, "FCLASS_ID": null, "FCLASS_PL": null, "FCLASS_GR": null, "FCLASS_IT": null, "FCLASS_NL": null, "FCLASS_SE": null, "FCLASS_BD": null, "FCLASS_UA": null}, "bbox": [79.695167, 5.96837, 81.787959, 9.824078], "geometry": {"type": "Polygon", "coordinates": [[[81.787959, 7.523055], [81.637322, 6.481775], [81.21802, 6.197141], [80.348357, 5.96837], [79.872469, 6.763463], [79.695167, 8.200843], [80.147801, 9.824078], [80.838818, 9.268427], [81.304319, 8.564206], [81.787959, 7.523055]]]}}