{
 "type": "FeatureCollection",
 "features": [
  {
   "type": "Feature",
   "geometry": {
    "type": "Polygon",
    "coordinates": [
     [
      [
       85.140908226,
       25.594051549
      ],
      [
       85.140843412,
       25.593984098
      ],
      [
       85.139443406,
       25.592584115
      ],
      [
       85.139103371,
       25.59230174
      ],
      [
       85.137503379,
       25.591201757
      ],
      [
       85.137473935,
       25.591181823
      ],
      [
       85.135973943,
       25.590181838
      ],
      [
       85.135542165,
       25.589950823
      ],
      [
       85.13506809,
       25.589802978
      ],
      [
       85.134570959,
       25.589744304
      ],
      [
       85.134070949,
       25.589777182
      ],
      [
       85.133588351,
       25.589900279
      ],
      [
       85.133142754,
       25.590108596
      ],
      [
       85.132752242,
       25.590393681
      ],
      [
       85.132432665,
       25.590743963
      ],
      [
       85.132196995,
       25.591145224
      ],
      [
       85.132054796,
       25.591581179
      ],
      [
       85.132011842,
       25.592034134
      ],
      [
       85.132069876,
       25.592485704
      ],
      [
       85.132226546,
       25.592917562
      ],
      [
       85.132475492,
       25.593312178
      ],
      [
       85.132806611,
       25.593653535
      ],
      [
       85.138506613,
       25.598453601
      ],
      [
       85.138904939,
       25.598726971
      ],
      [
       85.139355453,
       25.598922694
      ],
      [
       85.13984,
       25.599032881
      ],
      [
       85.140339054,
       25.599053092
      ],
      [
       85.140832505,
       25.598982513
      ],
      [
       85.141300467,
       25.598823989
      ],
      [
       85.141724084,
       25.598583906
      ],
      [
       85.142086286,
       25.59827194
      ],
      [
       85.142372477,
       25.597900661
      ],
      [
       85.142571125,
       25.597485032
      ],
      [
       85.142674227,
       25.5970418
      ],
      [
       85.142677629,
       25.596588825
      ],
      [
       85.142581195,
       25.59614436
      ],
      [
       85.142388813,
       25.595726315
      ],
      [
       85.142108234,
       25.595351534
      ],
      [
       85.140908226,
       25.594051549
      ]
     ]
    ]
   },
   "properties": {
    "event_code": "INDRA-20260920-001",
    "event_type": "URBAN_FLOOD",
    "severity": "MODERATE",
    "confidence_score": "0.4984",
    "review_status": "QUARANTINED"
   }
  }
 ]
}